STARLINK-3114           
1 49426U 21104U   26068.74873098  .00000054  00000+0  21458-4 0  9993
2 49426  53.2177 228.8579 0001485 100.3258 259.7902 15.08836725238631
LEMUR-2-SIERRINI        
1 60579U 24149DR  26068.80891719  .00014386  00000+0  92040-3 0  9991
2 60579  97.6873 151.1225 0006580 147.8458 212.3173 15.08682764 85461
